#aV2024  2  1  0  0  0.00000000     288 DD+AD WGS84 FIT  NGA
## 2299 345600.00000000   300.00000000 60341 0.0000000000000
+   32     1  2  3  4  5  6  7  8  9 10 11 12 13 14 15 16 17
+         18 19 20 21 22 23 24 25 26 27 28 29 30 31 32  0  0
+          0  0  0  0  0  0  0  0  0  0  0  0  0  0  0  0  0
+          0  0  0  0  0  0  0  0  0  0  0  0  0  0  0  0  0
+          0  0  0  0  0  0  0  0  0  0  0  0  0  0  0  0  0
++         2  2  2  2  2  2  2  2  2  2  2  2  2  2  2  2  2
++         2  2  2  2  2  2  2  2  2  2  2  2  2  2  2  0  0
++         0  0  0  0  0  0  0  0  0  0  0  0  0  0  0  0  0
++         0  0  0  0  0  0  0  0  0  0  0  0  0  0  0  0  0
++         0  0  0  0  0  0  0  0  0  0  0  0  0  0  0  0  0
%c cc cc ccc ccc cccc cccc cccc cccc ccccc ccccc ccccc ccccc
%c cc cc ccc ccc cccc cccc cccc cccc ccccc ccccc ccccc ccccc
%f  0.0000000  0.000000000  0.00000000000  0.000000000000000
%f  0.0000000  0.000000000  0.00000000000  0.000000000000000
%i    0    0    0    0      0      0      0      0         0
%i    0    0    0    0      0      0      0      0         0
/*      NGA, ST. LOUIS,MO.                                  
/*   EPHEMERIS COMPUTED FROM 2 DAYS OF DATA                 
/*   EPOCHA v9 SMOOTHER                                     
/*   G2296 IERS2010 SATIGS SATAPC                           
*  2024  2  1 21 10  0.00000000
P  1  12149.574656 -17475.062236  15339.846064    167.959090                    
V  1   -683.961920  20220.185492  23388.763251      0.013285                    
P  2  14215.910707 -10087.199188  20470.353026   -491.967806                    
V  2    733.517386  24947.127260  12325.315033      0.057968                    
P  3  23541.519480 -12042.451663  -1842.181452    165.744161                    
V  3   2888.855947   1116.907906  32193.997659      0.249945                    
P  4  16523.560936  -4997.665048 -20207.237627    281.122206                    
V  4  19781.118699  16343.741926  11992.527001      0.095411                    
P  5 -24206.632493   4614.561163 -10196.090983   -160.200442                    
V  5  10263.882429  -7707.958518 -28245.727577     -0.014565                    
P  6  -6683.327484 -21681.766336 -13646.964351    423.278716                    
V  6   3443.428515 -17170.670974  25564.016642     -0.141876                    
P  7   5334.371141 -25355.691421  -4044.403237    -51.779805                    
V  7   2994.946550   6129.381711 -31261.778530     -0.091805                    
P  8  22023.370486   1963.741321  14925.900159   -164.998064                    
V  8  14725.225697  12101.861803 -22754.589454     -0.018965                    
P  9   4493.566459 -15145.669335 -21427.261791     78.126120                    
V  9  22694.117740  14693.405189  -5705.809210      0.124848                    
P 10   3595.391208  14572.320423  22093.365406    -71.637789                    
V 10 -25180.410759  11122.762165  -3584.245019     -0.014794                    
P 11 -12526.516408 -11603.775350 -20331.228303   -561.196356                    
V 11   4617.525250 -25445.434469  11616.582735     -0.133328                    
P 12 -24323.387517  10466.914135  -1783.350468   -473.804291                    
V 12  -2783.462789  -1936.192906  31743.512446     -0.037647                    
P 13 -21842.396594 -12229.430651   8998.164884    621.565013                    
V 13  -6967.822353  -9558.981993 -29031.316941      0.035761                    
P 14    760.042245 -16562.972922  20735.935418    314.535597                    
V 14  24649.085627  -9422.561926  -8622.443746      0.100930                    
P 15 -22217.512085    488.609264  14206.029341    123.321395                    
V 15 -15597.468281 -10955.315110 -23015.970505      0.039110                    
P 16  22241.678665   3082.604193 -14869.412475   -371.793514                    
V 16 -16524.519629   7610.772683 -23220.113719      0.080686                    
P 17  -7795.760809 -20157.627765  15762.542959    718.265806                    
V 17  16082.888450  10778.835342  22493.588080     -0.011019                    
P 18  -5174.856938  25735.793094  -3307.225838   -546.058604                    
V 18  -2023.549890  -4490.296521 -31809.337558     -0.087117                    
P 19 -15689.706274 -20388.358307   7127.286846    434.776381                    
V 19   8310.153374   4495.941306  30003.000599      0.052703                    
P 20 -17205.973608  -5004.916509 -19491.114215    389.101393                    
V 20  19746.479117 -15336.371755 -13614.789403     -0.014472                    
P 21  15236.371816  -3663.344900  21825.054698    136.421829                    
V 21    678.457787  26696.765029   5066.556907     -0.013037                    
P 22  -6933.551631 -13828.541524  22006.030080     38.231440                    
V 22  25304.000018  -9237.564659   2498.665653     -0.063520                    
P 23  -9806.947597  17701.299331  17123.989648    147.324892                    
V 23 -20184.411888   8211.023271 -20255.214476      0.078087                    
P 24 -14787.671522   8187.059946  19987.168044   -424.549332                    
V 24  -1420.286032 -26496.131485  10018.521841     -0.066349                    
P 25 -17115.340443  16983.459366 -11161.105334    487.250272                    
V 25 -13653.663502   3393.488649  27187.262819      0.012117                    
P 26  14613.466818   9238.357298 -20389.827307    194.577172                    
V 26 -21939.160445  13215.618779  -9437.446445     -0.038160                    
P 27  23160.673714  12710.977351   4187.979204     -0.195004                    
V 27   3234.058814   5123.072196 -30962.355445     -0.035779                    
P 28   6271.574626  23354.462844 -11011.547103   -117.182541                    
V 28  -3259.099793  13774.969706  27408.185837     -0.121874                    
P 29  -6973.196222  13511.451622 -21817.268874   -607.753330                    
V 29 -21397.332146 -17369.587698  -4023.801625      0.006864                    
P 30  -1903.383672 -25693.044351   5973.589236   -438.030900                    
V 30   4402.149891  -7116.009229 -30100.403643      0.048475                    
P 31  11063.802632  15981.216815 -18127.224285   -227.608961                    
V 31  -4480.321337  22398.510417  17611.677014     -0.001736                    
P 32  12317.383372  19770.206094  13149.969067   -609.147110                    
V 32 -14533.713562  -7648.836636  25291.985253     -0.023986                    
EOF
